NORAD_CAT_ID,OBJECT_NAME,OBJECT_TYPE,EPOCH,MEAN_MOTION,ECCENTRICITY,INCLINATION,RA_OF_ASC_NODE,ARG_OF_PERICENTER,MEAN_ANOMALY,BSTAR,MEAN_MOTION_DOT,MEAN_MOTION_DDOT,TLE_LINE0,TLE_LINE1,TLE_LINE2,SEMIMAJOR_AXIS,PERIOD,APOGEE,PERIGEE,DECAYED
52987.0,STARLINK-4259,PAYLOAD,2023-06-15 10:43:33,15.0882995,0.0001043,53.2179,265.4072,99.0678,261.0432,2.2242e-05,6.6e-07,0.0,0 STARLINK-4259,1 52987U 22076B   23166.44691306  .00000066  00000-0  22242-4 0  9997,2 52987  53.2179 265.4072 0001043  99.0678 261.0432 15.08829950 52476,6917.911,95.438,540.498,539.055,0.0
52987.0,STARLINK-4259,PAYLOAD,2023-06-15 12:18:56,15.08829042,0.0001029,53.2162,265.1137,103.6631,256.4475,3.5536e-05,2.78e-06,0.0,0 STARLINK-4259,1 52987U 22076B   23166.51315405  .00000278  00000-0  35536-4 0  9993,2 52987  53.2162 265.1137 0001029 103.6631 256.4475 15.08829042 52019,6917.914,95.438,540.491,539.067,0.0
52987.0,STARLINK-4259,PAYLOAD,2023-06-15 17:05:05,15.08836201,0.0001024,53.2168,264.2189,95.9988,264.1121,7.5251e-05,9.1e-06,0.0,0 STARLINK-4259,1 52987U 22076B   23166.71186918  .00000910  00000-0  75251-4 0  9991,2 52987  53.2168 264.2189 0001024  95.9988 264.1121 15.08836201 52519,6917.892,95.438,540.465,539.049,0.0
52987.0,STARLINK-4259,PAYLOAD,2023-06-16 07:23:33,15.08844613,0.0001065,53.2175,261.5413,93.7236,266.3878,0.00010091,1.319e-05,0.0,0 STARLINK-4259,1 52987U 22076B   23167.30802328  .00001319  00000-0  10091-3 0  9991,2 52987  53.2175 261.5413 0001065  93.7236 266.3878 15.08844613 52603,6917.866,95.437,540.468,538.995,0.0
52987.0,STARLINK-4259,PAYLOAD,2023-06-16 12:09:41,15.08863368,9.51e-05,53.2175,260.6492,107.2707,252.8389,1.8744e-05,1.1e-07,0.0,0 STARLINK-4259,1 52987U 22076B   23167.50673311  .00000011  00000-0  18744-4 0  9993,2 52987  53.2175 260.6492 0000951 107.2707 252.8389 15.08863368 52163,6917.809,95.436,540.332,539.016,0.0
52987.0,STARLINK-4259,PAYLOAD,2023-06-16 15:20:27,15.08869551,9.01e-05,53.2177,260.0543,106.9368,253.1723,2.0502e-05,3.9e-07,0.0,0 STARLINK-4259,1 52987U 22076B   23167.63920767  .00000039  00000-0  20502-4 0  9992,2 52987  53.2177 260.0543 0000901 106.9368 253.1723 15.08869551 52650,6917.79,95.436,540.278,539.032,0.0
52987.0,STARLINK-4259,PAYLOAD,2023-06-17 12:00:27,15.08858603,0.0001125,53.2176,256.1886,91.6977,268.4144,0.00030022,4.496e-05,0.0,0 STARLINK-4259,1 52987U 22076B   23168.50032258  .00004496  00000-0  30022-3 0  9996,2 52987  53.2176 256.1886 0001125  91.6977 268.4144 15.08858603 52315,6917.824,95.436,540.467,538.91,0.0
52987.0,STARLINK-4259,PAYLOAD,2023-06-17 13:35:53,15.08832289,0.000104,53.2169,255.8914,93.33,266.7811,-1.406e-05,-5.11e-06,0.0,0 STARLINK-4259,1 52987U 22076B   23168.56659250 -.00000511  00000-0 -14060-4 0  9990,2 52987  53.2169 255.8914 0001040  93.3300 266.7811 15.08832289 52796,6917.904,95.438,540.488,539.049,0.0
52987.0,STARLINK-4259,PAYLOAD,2023-06-18 11:51:17,15.08843551,0.0001041,53.2163,251.7289,69.9466,290.1639,0.00022251,3.256e-05,0.0,0 STARLINK-4259,1 52987U 22076B   23169.49395068  .00003256  00000-0  22251-3 0  9994,2 52987  53.2163 251.7289 0001041  69.9466 290.1639 15.08843551 52460,6917.87,95.437,540.455,539.014,0.0
52987.0,STARLINK-4259,PAYLOAD,2023-06-19 05:20:32,15.08842059,0.0001182,53.2158,248.4591,61.9072,298.2039,0.00024632,3.635e-05,0.0,0 STARLINK-4259,1 52987U 22076B   23170.22259286  .00003635  00000-0  24632-3 0  9994,2 52987  53.2158 248.4591 0001182  61.9072 298.2039 15.08842059 53044,6917.874,95.437,540.557,538.921,0.0
52987.0,STARLINK-4259,PAYLOAD,2023-06-19 08:31:18,15.08841566,0.0001189,53.2161,247.864,63.6571,296.4543,0.00021724,3.171e-05,0.0,0 STARLINK-4259,1 52987U 22076B   23170.35507325  .00003171  00000-0  21724-3 0  9992,2 52987  53.2161 247.8640 0001189  63.6571 296.4543 15.08841566 52597,6917.876,95.437,540.563,538.918,0.0
52987.0,STARLINK-4259,PAYLOAD,2023-06-20 05:11:19,15.08840033,0.0001261,53.216,243.9986,69.4182,290.6946,0.00011699,1.575e-05,0.0,0 STARLINK-4259,1 52987U 22076B   23171.21619326  .00001575  00000-0  11699-3 0  9999,2 52987  53.2160 243.9986 0001261  69.4182 290.6946 15.08840033 53197,6917.88,95.438,540.618,538.873,0.0
52987.0,STARLINK-4259,PAYLOAD,2023-06-20 11:32:51,15.0884085,0.0001237,53.2163,242.8082,75.1408,284.9721,0.000164,2.323e-05,0.0,0 STARLINK-4259,1 52987U 22076B   23171.48115300  .00002323  00000-0  16400-3 0  9998,2 52987  53.2163 242.8082 0001237  75.1408 284.9721 15.08840850 52769,6917.878,95.438,540.599,538.887,0.0
52987.0,STARLINK-4259,PAYLOAD,2023-06-21 11:23:38,15.08843789,0.0001157,53.2182,238.3491,82.4044,277.7079,8.1911e-05,1.016e-05,0.0,0 STARLINK-4259,1 52987U 22076B   23172.47474956  .00001016  00000-0  81911-4 0  9991,2 52987  53.2182 238.3491 0001157  82.4044 277.7079 15.08843789 53381,6917.869,95.437,540.534,538.933,0.0
52987.0,STARLINK-4259,PAYLOAD,2023-06-22 08:03:40,15.08829296,0.000103,53.2175,234.484,77.6558,282.4549,4.3444e-05,4.04e-06,0.0,0 STARLINK-4259,1 52987U 22076B   23173.33588114  .00000404  00000-0  43444-4 0  9998,2 52987  53.2175 234.4840 0001030  77.6558 282.4549 15.08829296 53511,6917.913,95.438,540.491,539.066,0.0
52987.0,STARLINK-4259,PAYLOAD,2023-06-22 12:49:49,15.08837064,8.66e-05,53.2167,233.5896,66.4758,293.6325,6.151e-05,6.91e-06,0.0,0 STARLINK-4259,1 52987U 22076B   23173.53459640  .00000691  00000-0  61510-4 0  9993,2 52987  53.2167 233.5896 0000866  66.4758 293.6325 15.08837064 53548,6917.889,95.438,540.353,539.155,0.0
52987.0,STARLINK-4259,PAYLOAD,2023-06-23 11:05:12,15.08847827,0.0001011,53.2169,229.427,79.6994,280.4112,0.00011976,1.619e-05,0.0,0 STARLINK-4259,1 52987U 22076B   23174.46195008  .00001619  00000-0  11976-3 0  9992,2 52987  53.2169 229.4270 0001011  79.6994 280.4112 15.08847827 53682,6917.856,95.437,540.421,539.022,0.0
52987.0,STARLINK-4259,PAYLOAD,2023-06-23 20:37:31,15.08844442,9.57e-05,53.2166,227.6424,79.372,280.738,5.015e-05,5.11e-06,0.0,0 STARLINK-4259,1 52987U 22076B   23174.85939292  .00000511  00000-0  50150-4 0  9994,2 52987  53.2166 227.6424 0000957  79.3720 280.7380 15.08844442 53749,6917.867,95.437,540.394,539.07,0.0
52987.0,STARLINK-4259,PAYLOAD,2023-06-24 07:45:14,15.08836412,0.0001136,53.2171,225.561,87.0106,273.1016,9.2071e-05,1.178e-05,0.0,0 STARLINK-4259,1 52987U 22076B   23175.32307931  .00001178  00000-0  92071-4 0  9994,2 52987  53.2171 225.5610 0001136  87.0106 273.1016 15.08836412 53811,6917.891,95.438,540.542,538.97,0.0
52987.0,STARLINK-4259,PAYLOAD,2023-06-25 09:11:23,15.0884508,0.0001066,53.2169,220.8038,88.2284,271.883,9.0907e-05,1.159e-05,0.0,0 STARLINK-4259,1 52987U 22076B   23176.38291468  .00001159  00000-0  90907-4 0  9993,2 52987  53.2169 220.8038 0001066  88.2284 271.8830 15.08845080 53979,6917.865,95.437,540.467,538.992,0.0
52987.0,STARLINK-4259,PAYLOAD,2023-06-26 02:40:38,15.08838044,0.0001082,53.2151,217.5331,83.4395,276.6721,0.00011685,1.572e-05,0.0,0 STARLINK-4259,1 52987U 22076B   23177.11155850  .00001572  00000-0  11685-3 0  9993,2 52987  53.2151 217.5331 0001082  83.4395 276.6721 15.08838044 54084,6917.886,95.438,540.5,539.003,0.0
52987.0,STARLINK-4259,PAYLOAD,2023-06-27 08:52:58,15.08840486,0.0001156,53.216,211.8821,91.049,269.0635,4.2149e-05,3.83e-06,0.0,0 STARLINK-4259,1 52987U 22076B   23178.37011811  .00000383  00000-0  42149-4 0  9999,2 52987  53.2160 211.8821 0001156  91.0490 269.0635 15.08840486 54272,6917.879,95.438,540.544,538.944,0.0
52987.0,STARLINK-4259,PAYLOAD,2023-06-29 02:13:00,15.08836785,0.0001154,53.2167,204.1515,88.2961,271.8163,4.8129e-05,4.78e-06,0.0,0 STARLINK-4259,1 52987U 22076B   23180.09236211  .00000478  00000-0  48129-4 0  9993,2 52987  53.2167 204.1515 0001154  88.2961 271.8163 15.08836785 54536,6917.89,95.438,540.554,538.957,0.0
52987.0,STARLINK-4259,PAYLOAD,2023-07-01 09:51:30,15.08838763,0.0001049,53.2164,193.7431,85.2511,274.8601,3.7555e-05,3.1e-06,0.0,0 STARLINK-4259,1 52987U 22076B   23182.41076478  .00000310  00000-0  37555-4 0  9994,2 52987  53.2164 193.7431 0001049  85.2511 274.8601 15.08838763 54880,6917.884,95.438,540.475,539.023,0.0
52987.0,STARLINK-4259,PAYLOAD,2023-07-02 17:39:12,15.0883967,0.0001048,53.2168,187.7959,86.1844,273.9268,5.8988e-05,6.51e-06,0.0,0 STARLINK-4259,1 52987U 22076B   23183.73556474  .00000651  00000-0  58988-4 0  9990,2 52987  53.2168 187.7959 0001048  86.1844 273.9268 15.08839670 55080,6917.881,95.438,540.471,539.021,0.0
52987.0,STARLINK-4259,PAYLOAD,2023-07-03 23:51:32,15.08841067,0.0001086,53.2168,182.1462,86.019,274.0926,4.2144e-05,3.83e-06,0.0,0 STARLINK-4259,1 52987U 22076B   23184.99412383  .00000383  00000-0  42144-4 0  9998,2 52987  53.2168 182.1462 0001086  86.0190 274.0926 15.08841067 55270,6917.877,95.437,540.493,538.991,0.0
52987.0,STARLINK-4259,PAYLOAD,2023-07-05 06:03:52,15.08838396,0.0001123,53.2168,176.4956,89.7203,270.3918,9.7596e-06,-1.32e-06,0.0,0 STARLINK-4259,1 52987U 22076B   23186.25268637 -.00000132  00000-0  97596-5 0  9995,2 52987  53.2168 176.4956 0001123  89.7203 270.3918 15.08838396 55463,6917.885,95.438,540.527,538.973,0.0
52987.0,STARLINK-4259,PAYLOAD,2023-07-06 15:26:58,15.08839443,0.0001097,53.2168,170.2516,87.9607,272.1511,2.1615e-05,5.6e-07,0.0,0 STARLINK-4259,1 52987U 22076B   23187.64372716  .00000056  00000-0  21615-4 0  9995,2 52987  53.2168 170.2516 0001097  87.9607 272.1511 15.08839443 55671,6917.882,95.438,540.506,538.988,0.0
52987.0,STARLINK-4259,PAYLOAD,2023-07-07 21:39:18,15.08835588,0.0001112,53.2167,164.6029,90.9219,269.1901,2.5865e-05,1.24e-06,0.0,0 STARLINK-4259,1 52987U 22076B   23188.90229179  .00000124  00000-0  25865-4 0  9996,2 52987  53.2167 164.6029 0001112  90.9219 269.1901 15.08835588 55863,6917.894,95.438,540.528,538.99,0.0
52987.0,STARLINK-4259,PAYLOAD,2023-07-09 03:51:38,15.08833362,0.0001196,53.2173,158.9539,94.7815,265.3314,-3.5977e-05,-8.6e-06,0.0,0 STARLINK-4259,1 52987U 22076B   23190.16085844 -.00000860  00000-0 -35977-4 0  9990,2 52987  53.2173 158.9539 0001196  94.7815 265.3314 15.08833362 56054,6917.901,95.438,540.593,538.938,0.0
